STARLINK-1012           
1 44718U 19074F   21007.17975571 -.00011752  00000-0 -77334-3 0  9992
2 44718  53.0415  19.9601 0001688  96.8683 263.2498 15.06305512 64421
STARLINK-1013           
1 44719U 19074G   21007.38610520  .00000692  00000-0  65377-4 0  9990
2 44719  53.0580  19.0309 0001330  93.5029 266.6112 15.06383255 64456
STARLINK-1014           
1 44720U 19074H   21007.40467019 -.00028295  00000-0 -19016-2 0  9996
2 44720  53.0207  18.9358 0001608 114.9594 245.1562 15.06138414 64466
STARLINK-1015           
1 44721U 19074J   21007.39346150 -.00001246  00000-0 -64811-4 0  9999
2 44721  53.0554  19.0014 0001270 106.7402 253.3726 15.06393592 64457
STARLINK-1016           
1 44722U 19074K   21007.06541696  .00000477  00000-0  50955-4 0  9993
2 44722  53.0563  20.4711 0001467  72.6741 287.4409 15.06395687 64412
STARLINK-1017           
1 44723U 19074L   21006.54989706 -.00068595  00000-0 -47050-2 0  9991
2 44723  53.0397  22.7941 0001577  23.4256 336.6804 15.05811150 64160
STARLINK-1019           
1 44724U 19074M   21007.24239138 -.00007977  00000-0 -51839-3 0  9995
2 44724  53.0414  19.6712 0001521 147.4153 212.6930 15.06315782 64438
STARLINK-1020           
1 44725U 19074N   21006.78343458  .00000498  00000-0  52292-4 0  9999
2 44725  53.0588  41.7365 0001155  75.1962 284.9155 15.06402419 63916
STARLINK-1021           
1 44726U 19074P   21007.43768893  .00000491  00000-0  51899-4 0  9992
2 44726  53.0545  18.7965 0001376 109.1937 250.9201 15.06380174 64464
STARLINK-1022           
1 44727U 19074Q   21007.15019553  .00000628  00000-0  61067-4 0  9994
2 44727  53.0597  60.0914 0001651  66.9665 293.1498 15.06389198 63876
STARLINK-1023           
1 44728U 19074R   21007.41562858 -.00020038  00000-0 -13319-2 0  9999
2 44728  53.0441  18.9048 0001127 134.8026 225.3055 15.06351606 64464
STARLINK-1024           
1 44729U 19074S   21006.79283756  .00002279  00000-0  17289-3 0  9993
2 44729  53.0018  41.5183 0001704 111.1371 248.9799 15.06174500 63921
STARLINK-1025           
1 44730U 19074T   21006.48313497 -.00008417  00000-0 -55979-3 0  9997
2 44730  53.0010  23.1054 0003178 198.9939 161.0931 15.05534738 64159
STARLINK-1026           
1 44731U 19074U   21007.18336039 -.00000605  00000-0 -21761-4 0  9997
2 44731  53.0581  19.9416 0001180  83.2626 276.8497 15.06399734 64426
STARLINK-1027           
1 44732U 19074V   21006.57333596 -.00001109  00000-0 -55580-4 0  9991
2 44732  53.0582  42.6842 0001425  62.4439 297.6695 15.06392423 63885
STARLINK-1028           
1 44733U 19074W   21006.30646663 -.00046544  00000-0 -31639-2 0  9994
2 44733  53.0473  23.8787 0003404 315.2759  44.7955 15.05952042 64123
STARLINK-1029           
1 44734U 19074X   21006.55459636  .00000685  00000-0  66162-4 0  9999
2 44734  53.0030 302.7863 0001694  73.1283 286.9890 15.05580838 65284
STARLINK-1030           
1 44735U 19074Y   21007.44321691  .00000846  00000-0  75681-4 0  9993
2 44735  53.0576  38.7715 0001357  64.9085 295.2045 15.06404781 64182
STARLINK-1031           
1 44736U 19074Z   21006.79450410  .00000873  00000-0  77484-4 0  9996
2 44736  53.0587  41.6738 0001339  64.6673 295.4454 15.06398416 63927
STARLINK-1032           
1 44737U 19074AA  21007.40269405  .00014055  00000-0  96258-3 0  9994
2 44737  53.0569  38.9562 0002417  99.8167 260.3095 15.06320605 64184
STARLINK-1033           
1 44738U 19074AB  21006.79083242  .00000608  00000-0  59759-4 0  9994
2 44738  53.0609  41.7123 0001716  50.0344 310.0796 15.06392478 63910
STARLINK-1052           
1 44739U 19074AC  21006.79316545  .00002047  00000-0  15824-3 0  9993
2 44739  53.0010  41.6501 0001348 104.5463 255.5674 15.05921585 63918
STARLINK-1035           
1 44740U 19074AD  21006.80186747 -.00001218  00000-0 -62898-4 0  9991
2 44740  53.0592  41.6595 0001268  72.2264 287.8864 15.06391527 63927
STARLINK-1036           
1 44741U 19074AE  21006.81292407 -.00001229  00000-0 -63612-4 0  9991
2 44741  53.0567  41.6012 0001293  73.6000 286.5131 15.06393049 63929
STARLINK-1038           
1 44743U 19074AG  21007.39346428  .00000605  00000-0  59525-4 0  9993
2 44743  53.0584  59.0039 0001767  56.1336 303.9821 15.06398935 63903
STARLINK-1039           
1 44744U 19074AH  21007.13912696 -.00001279  00000-0 -66976-4 0  9990
2 44744  53.0564  60.1395 0001308  71.8408 288.2723 15.06393183 63866
STARLINK-1041           
1 44746U 19074AK  21007.12439279  .00000710  00000-0  66582-4 0  9992
2 44746  53.0608  60.2093 0001427  68.0877 292.0263 15.06391532 63861
STARLINK-1042           
1 44747U 19074AL  21007.15388079  .00000463  00000-0  50015-4 0  9996
2 44747  53.0575  60.0744 0001305  69.6682 290.4447 15.06387886 63876
STARLINK-1043           
1 44748U 19074AM  21006.51989810  .00000739  00000-0  68524-4 0  9996
2 44748  53.0561  62.9183 0001194  65.1434 294.9679 15.06388602 63606
STARLINK-1044           
1 44749U 19074AN  21006.81660172  .00000444  00000-0  48691-4 0  9993
2 44749  53.0573  41.5894 0001142  55.2664 304.8433 15.06402814 63926
STARLINK-1045           
1 44750U 19074AP  21007.38967272  .00124735  17696-4  25305-3 0  9998
2 44750  52.9969   0.4735 0005231  73.4559 286.7043 15.99316157 64710
STARLINK-1046           
1 44751U 19074AQ  21006.66733263 -.00000993  00000-0 -47806-4 0  9999
2 44751  53.0577  62.2592 0001471  67.3134 292.8010 15.06393248 63623
STARLINK-1047           
1 44752U 19074AR  21006.82029416 -.00001257  00000-0 -65558-4 0  9994
2 44752  53.0557  41.5709 0001250  76.6133 283.4995 15.06391414 63923
STARLINK-1048           
1 44753U 19074AS  21006.82571293  .00027716  00000-0  18665-2 0  9991
2 44753  53.0251  21.5493 0001262  60.6912 299.4203 15.06514469 64202
STARLINK-1049           
1 44754U 19074AT  21006.56372059  .00069160  00000-0  45593-2 0  9991
2 44754  53.0216  22.7249 0001586  15.6132 344.4905 15.06862081 64160
STARLINK-1050           
1 44755U 19074AU  21007.40820294  .00003647  00000-0  26376-3 0  9992
2 44755  53.0599  58.9310 0001504  76.0218 284.0938 15.06376904 63912
STARLINK-1051           
1 44756U 19074AV  21006.50136325  .00014075  00000-0  95887-3 0  9998
2 44756  53.0146  23.0050 0001521  69.8656 290.2496 15.06517442 64159
STARLINK-1034           
1 44757U 19074AW  21007.09674558  .00000432  00000-0  47909-4 0  9994
2 44757  53.0592  40.3357 0001451  64.4179 295.6960 15.06392090 64133
STARLINK-1053           
1 44758U 19074AX  21007.43399584  .00000598  00000-0  59012-4 0  9997
2 44758  53.0584  58.8163 0001176  68.8331 291.2784 15.06406818 63911
STARLINK-1054           
1 44759U 19074AY  21006.63046970 -.00000524  00000-0 -16273-4 0  9990
2 44759  53.0589  62.4292 0001074  72.7834 287.3273 15.06389998 61264
STARLINK-1055           
1 44760U 19074AZ  21007.14650117 -.00001257  00000-0 -65509-4 0  9993
2 44760  53.0599  60.1104 0001445  60.4661 299.6472 15.06393933 63878
STARLINK-1056           
1 44761U 19074BA  21007.42294351 -.00001116  00000-0 -56047-4 0  9990
2 44761  53.0600  58.8705 0001317  60.6717 299.4404 15.06394859 63911
STARLINK-1057           
1 44762U 19074BB  21006.82766996 -.00000987  00000-0 -47374-4 0  9991
2 44762  53.0613  41.5438 0001629  64.2123 295.9034 15.06391729 63929
STARLINK-1058           
1 44763U 19074BC  21007.44506718  .00000544  00000-0  55395-4 0  9994
2 44763  53.0600  58.7695 0001181  79.6086 280.5036 15.06391975 63916
STARLINK-1059           
1 44764U 19074BD  21007.08937494  .00000588  00000-0  58383-4 0  9992
2 44764  53.0596  40.3703 0001456  67.5926 292.5217 15.06392007 64138
STARLINK-1060           
1 44765U 19074BE  21006.51067644  .00000419  00000-0  47008-4 0  9996
2 44765  53.0585  42.9607 0001443  67.4077 292.7064 15.06399463 63875
STARLINK-1061           
1 44766U 19074BF  21007.17230538  .00000452  00000-0  49270-4 0  9994
2 44766  53.0604  59.9927 0001245  66.9250 293.1870 15.06392104 63873
STARLINK-1062           
1 44767U 19074BG  21007.16493177 -.00001288  00000-0 -67630-4 0  9994
2 44767  53.0587  60.0238 0001459  61.3761 298.7374 15.06390949 63870
STARLINK-1063           
1 44768U 19074BH  21006.65627279  .00000837  00000-0  75050-4 0  9992
2 44768  53.0580  62.3072 0001237  61.1627 298.9486 15.06401119 63630
STARLINK-1064           
1 44769U 19074BJ  21007.13735860  .00001121  00000-0  96051-4 0  9994
2 44769  53.0014  60.1652 0001197  83.9001 276.2124 15.05586573 63866
STARLINK-1067           
1 44771U 19074BL  21006.64521631  .00000696  00000-0  65586-4 0  9996
2 44771  53.0565  62.3532 0001511  66.3288 293.7859 15.06402538 63625
STARLINK-1068           
1 44772U 19074BM  21006.56965036 -.00001254  00000-0 -65294-4 0  9998
2 44772  53.0591  42.7056 0001449  62.4859 297.6277 15.06391608 63889
JILIN-01 GAOFEN 2A      
1 44777U 19075A   21007.35917269 -.00000014  00000-0  30111-5 0  9990
2 44777  97.4863  74.4740 0010461 258.7237 231.5099 15.09442044 63539
NINGXIA-1 1             
1 44779U 19076A   21007.41499960 -.00000117  00000-0  84724-5 0  9996
2 44779  45.0090  55.0794 0009253 123.2557 236.9168 14.01681559 59082
NINGXIA-1 2             
1 44780U 19076B   21007.32917801 -.00000125  00000-0  34643-5 0  9991
2 44780  45.0116  55.4052 0006903 118.6840 241.4689 14.01679112 59076
NINGXIA-1 3             
1 44781U 19076C   21007.31497138 -.00000130  00000-0  35740-8 0  9995
2 44781  45.0027  55.0318 0008257 101.7474 258.4285 14.01671317 59078
NINGXIA-1 4             
1 44782U 19076D   21007.44457965 -.00000118  00000-0  79663-5 0  9999
2 44782  45.0112  54.5908 0011765  88.3144 271.9038 14.01678186 59094
NINGXIA-1 5             
1 44783U 19076E   21007.35743041 -.00000114  00000-0  10477-4 0  9996
2 44783  45.0092  54.7296 0010258 106.5609 253.6352 14.01666352 59086
KL-ALPHA A              
1 44785U 19077A   21007.08081574  .00000076  00000-0  91507-4 0  9994
2 44785  88.9120  81.9428 0012338 132.0887 228.1315 13.55777591 56469
KL-ALPHA B              
1 44786U 19077B   21006.74919709  .00000076  00000-0  91342-4 0  9994
2 44786  88.8969  82.5198 0026456 176.4193 183.7157 13.55756212 55870
